{
  "links" : {
    "next" : "https://api.nasa.gov/neo/rest/v1/feed?start_date=2005-10-23&end_date=2005-10-23&detailed=true&api_key=t0TVs3DtDT2H8Oy2Zy8m2eVrNsAVKAexjcZXUckd",
    "prev" : "https://api.nasa.gov/neo/rest/v1/feed?start_date=2005-10-21&end_date=2005-10-21&detailed=true&api_key=t0TVs3DtDT2H8Oy2Zy8m2eVrNsAVKAexjcZXUckd",
    "self" : "https://api.nasa.gov/neo/rest/v1/feed?start_date=2005-10-22&end_date=2005-10-22&detailed=true&api_key=t0TVs3DtDT2H8Oy2Zy8m2eVrNsAVKAexjcZXUckd"
  },
  "element_count" : 11,
  "near_earth_objects" : {
    "2005-10-22" : [ {
      "links" : {
        "self" : "https://api.nasa.gov/neo/rest/v1/neo/3437789?api_key=t0TVs3DtDT2H8Oy2Zy8m2eVrNsAVKAexjcZXUckd"
      },
      "neo_reference_id" : "3437789",
      "name" : "(2008 VY3)",
      "nasa_jpl_url" : "http://ssd.jpl.nasa.gov/sbdb.cgi?sstr=3437789",
      "absolute_magnitude_h" : 24.8,
      "estimated_diameter" : {
        "kilometers" : {
          "estimated_diameter_min" : 0.0291443905,
          "estimated_diameter_max" : 0.0651688382
        },
        "meters" : {
          "estimated_diameter_min" : 29.1443904535,
          "estimated_diameter_max" : 65.1688382168
        },
        "miles" : {
          "estimated_diameter_min" : 0.018109479,
          "estimated_diameter_max" : 0.0404940262
        },
        "feet" : {
          "estimated_diameter_min" : 95.6180819754,
          "estimated_diameter_max" : 213.8085311752
        }
      },
      "is_potentially_hazardous_asteroid" : false,
      "close_approach_data" : [ {
        "close_approach_date" : "2005-10-22",
        "epoch_date_close_approach" : 1129964400000,
        "relative_velocity" : {
          "kilometers_per_second" : "8.808428696",
          "kilometers_per_hour" : "31710.3433055926",
          "miles_per_hour" : "19703.5741500778"
        },
        "miss_distance" : {
          "astronomical" : "0.2526334384",
          "lunar" : "98.2744140625",
          "kilometers" : "37793428",
          "miles" : "23483746"
        },
        "orbiting_body" : "Earth"
      } ],
      "orbital_data" : {
        "orbit_id" : "8",
        "orbit_determination_date" : "2017-04-06 09:02:16",
        "orbit_uncertainty" : "8",
        "minimum_orbit_intersection" : ".0354197",
        "jupiter_tisserand_invariant" : "6.056",
        "epoch_osculation" : "2454775.5",
        "eccentricity" : ".3479200511247572",
        "semi_major_axis" : ".9896649279274938",
        "inclination" : "12.38283450399265",
        "ascending_node_longitude" : "220.3080554103107",
        "orbital_period" : "359.6091194891068",
        "perihelion_distance" : ".645340655606581",
        "perihelion_argument" : "301.4048607754086",
        "aphelion_distance" : "1.333989200248407",
        "perihelion_time" : "2454853.676857127850",
        "mean_anomaly" : "281.738167802837",
        "mean_motion" : "1.001086959394824",
        "equinox" : "J2000"
      }
    }, {
      "links" : {
        "self" : "https://api.nasa.gov/neo/rest/v1/neo/3715507?api_key=t0TVs3DtDT2H8Oy2Zy8m2eVrNsAVKAexjcZXUckd"
      },
      "neo_reference_id" : "3715507",
      "name" : "(2015 GY)",
      "nasa_jpl_url" : "http://ssd.jpl.nasa.gov/sbdb.cgi?sstr=3715507",
      "absolute_magnitude_h" : 21.7,
      "estimated_diameter" : {
        "kilometers" : {
          "estimated_diameter_min" : 0.1214940408,
          "estimated_diameter_max" : 0.2716689341
        },
        "meters" : {
          "estimated_diameter_min" : 121.4940407996,
          "estimated_diameter_max" : 271.6689340891
        },
        "miles" : {
          "estimated_diameter_min" : 0.0754928736,
          "estimated_diameter_max" : 0.1688071972
        },
        "feet" : {
          "estimated_diameter_min" : 398.6025088171,
          "estimated_diameter_max" : 891.3023057169
        }
      },
      "is_potentially_hazardous_asteroid" : true,
      "close_approach_data" : [ {
        "close_approach_date" : "2005-10-22",
        "epoch_date_close_approach" : 1129964400000,
        "relative_velocity" : {
          "kilometers_per_second" : "7.9824855652",
          "kilometers_per_hour" : "28736.9480347321",
          "miles_per_hour" : "17856.0219608034"
        },
        "miss_distance" : {
          "astronomical" : "0.0496605246",
          "lunar" : "19.3179454803",
          "kilometers" : "7429109",
          "miles" : "4616234.5"
        },
        "orbiting_body" : "Earth"
      } ],
      "orbital_data" : {
        "orbit_id" : "40",
        "orbit_determination_date" : "2017-04-06 08:34:32",
        "orbit_uncertainty" : "2",
        "minimum_orbit_intersection" : ".0227346",
        "jupiter_tisserand_invariant" : "5.741",
        "epoch_osculation" : "2458000.5",
        "eccentricity" : ".2000324558650823",
        "semi_major_axis" : "1.068023019396425",
        "inclination" : "11.80647795920217",
        "ascending_node_longitude" : "207.7817899674178",
        "orbital_period" : "403.1524902576374",
        "perihelion_distance" : ".8543837519061177",
        "perihelion_argument" : "108.6530258254932",
        "aphelion_distance" : "1.281662286886732",
        "perihelion_time" : "2458038.101681348035",
        "mean_anomaly" : "326.4231138033103",
        "mean_motion" : ".8929623621323522",
        "equinox" : "J2000"
      }
    }, {
      "links" : {
        "self" : "https://api.nasa.gov/neo/rest/v1/neo/3733861?api_key=t0TVs3DtDT2H8Oy2Zy8m2eVrNsAVKAexjcZXUckd"
      },
      "neo_reference_id" : "3733861",
      "name" : "(2015 VT64)",
      "nasa_jpl_url" : "http://ssd.jpl.nasa.gov/sbdb.cgi?sstr=3733861",
      "absolute_magnitude_h" : 26.0,
      "estimated_diameter" : {
        "kilometers" : {
          "estimated_diameter_min" : 0.0167708462,
          "estimated_diameter_max" : 0.0375007522
        },
        "meters" : {
          "estimated_diameter_min" : 16.7708462163,
          "estimated_diameter_max" : 37.5007521798
        },
        "miles" : {
          "estimated_diameter_min" : 0.0104209175,
          "estimated_diameter_max" : 0.0233018799
        },
        "feet" : {
          "estimated_diameter_min" : 55.0224631002,
          "estimated_diameter_max" : 123.0339677816
        }
      },
      "is_potentially_hazardous_asteroid" : false,
      "close_approach_data" : [ {
        "close_approach_date" : "2005-10-22",
        "epoch_date_close_approach" : 1129964400000,
        "relative_velocity" : {
          "kilometers_per_second" : "17.5610654517",
          "kilometers_per_hour" : "63219.8356260847",
          "miles_per_hour" : "39282.3473088858"
        },
        "miss_distance" : {
          "astronomical" : "0.3930253986",
          "lunar" : "152.8868865967",
          "kilometers" : "58795764",
          "miles" : "36533992"
        },
        "orbiting_body" : "Earth"
      } ],
      "orbital_data" : {
        "orbit_id" : "12",
        "orbit_determination_date" : "2017-04-06 08:30:50",
        "orbit_uncertainty" : "7",
        "minimum_orbit_intersection" : ".0240747",
        "jupiter_tisserand_invariant" : "5.351",
        "epoch_osculation" : "2458000.5",
        "eccentricity" : ".1707322962289648",
        "semi_major_axis" : "1.16576394185452",
        "inclination" : "17.98445467520723",
        "ascending_node_longitude" : "45.23033620275035",
        "orbital_period" : "459.7421833257268",
        "perihelion_distance" : ".966730387200768",
        "perihelion_argument" : "47.9229185966099",
        "aphelion_distance" : "1.364797496508271",
        "perihelion_time" : "2457839.028465173529",
        "mean_anomaly" : "126.4398931527779",
        "mean_motion" : ".7830475711317105",
        "equinox" : "J2000"
      }
    } ]
  }
}